[{"OBJECT_NAME":"ION SCV-017","OBJECT_ID":"2025-052W","EPOCH":"2026-03-09T17:11:44.577024","MEAN_MOTION":15.26881798,"ECCENTRICITY":0.0023746,"INCLINATION":97.4016,"RA_OF_ASC_NODE":324.7516,"ARG_OF_PERICENTER":44.9875,"MEAN_ANOMALY":315.3282,"EPHEMERIS_TYPE":0,"CLASSIFICATION_TYPE":"U","NORAD_CAT_ID":63230,"ELEMENT_SET_NO":999,"REV_AT_EPOCH":5485,"BSTAR":0.00024539061,"MEAN_MOTION_DOT":6.457e-5,"MEAN_MOTION_DDOT":0},{"OBJECT_NAME":"STARLINK-35207","OBJECT_ID":"2025-198J","EPOCH":"2026-03-09T20:32:12.294240","MEAN_MOTION":15.30172373,"ECCENTRICITY":9.585e-5,"INCLINATION":53.1567,"RA_OF_ASC_NODE":270.3556,"ARG_OF_PERICENTER":100.6259,"MEAN_ANOMALY":259.4849,"EPHEMERIS_TYPE":0,"CLASSIFICATION_TYPE":"U","NORAD_CAT_ID":65500,"ELEMENT_SET_NO":999,"REV_AT_EPOCH":2864,"BSTAR":0.00099926712,"MEAN_MOTION_DOT":0.00029328,"MEAN_MOTION_DDOT":0}]
